[{"OBJECT_NAME":"SITRO-AIS 13","OBJECT_ID":"2024-199J","EPOCH":"2026-03-09T21:50:28.432320","MEAN_MOTION":14.9731664,"ECCENTRICITY":0.00074694,"INCLINATION":97.3312,"RA_OF_ASC_NODE":274.5755,"ARG_OF_PERICENTER":53.5174,"MEAN_ANOMALY":306.6736,"EPHEMERIS_TYPE":0,"CLASSIFICATION_TYPE":"U","NORAD_CAT_ID":61743,"ELEMENT_SET_NO":999,"REV_AT_EPOCH":11713,"BSTAR":0.00039590089,"MEAN_MOTION_DOT":4.542e-5,"MEAN_MOTION_DDOT":0},{"OBJECT_NAME":"STARLINK-36172","OBJECT_ID":"2025-293T","EPOCH":"2026-03-09T19:05:12.319872","MEAN_MOTION":14.98326791,"ECCENTRICITY":0.00028802,"INCLINATION":70.001,"RA_OF_ASC_NODE":94.1898,"ARG_OF_PERICENTER":269.5473,"MEAN_ANOMALY":90.5356,"EPHEMERIS_TYPE":0,"CLASSIFICATION_TYPE":"U","NORAD_CAT_ID":67020,"ELEMENT_SET_NO":999,"REV_AT_EPOCH":1489,"BSTAR":0.0013659613,"MEAN_MOTION_DOT":0.00016242,"MEAN_MOTION_DDOT":0}]
